{
    "type": "FeatureCollection",
    "features": [
        {
            "type": "Feature",
            "properties": {},
            "geometry": {
                "type": "Polygon",
                "coordinates": [
                    [
                        [
                            107.574756,
                            -6.873973
                        ],
                        [
                            107.57588,
                            -6.874458
                        ],
                        [
                            107.576076,
                            -6.874154
                        ],
                        [
                            107.576241,
                            -6.874222
                        ],
                        [
                            107.576626,
                            -6.873731
                        ],
                        [
                            107.57666,
                            -6.873601
                        ],
                        [
                            107.576883,
                            -6.873659
                        ],
                        [
                            107.577172,
                            -6.872622
                        ],
                        [
                            107.577378,
                            -6.8724
                        ],
                        [
                            107.577492,
                            -6.87245
                        ],
                        [
                            107.577609,
                            -6.872258
                        ],
                        [
                            107.577413,
                            -6.872128
                        ],
                        [
                            107.577447,
                            -6.872065
                        ],
                        [
                            107.577279,
                            -6.872024
                        ],
                        [
                            107.5772,
                            -6.872117
                        ],
                        [
                            107.576977,
                            -6.871922
                        ],
                        [
                            107.576794,
                            -6.872096
                        ],
                        [
                            107.576595,
                            -6.872004
                        ],
                        [
                            107.576486,
                            -6.872093
                        ],
                        [
                            107.576211,
                            -6.872424
                        ],
                        [
                            107.576124,
                            -6.872571
                        ],
                        [
                            107.575591,
                            -6.872383
                        ],
                        [
                            107.575375,
                            -6.87298
                        ],
                        [
                            107.575234,
                            -6.873055
                        ],
                        [
                            107.574756,
                            -6.873973
                        ]
                    ]
                ]
            }
        }
    ]
}